LANDSAT 9               
1 49260U 21088A   24214.69876341  .00000833  00000+0  19491-3 0  9997
2 49260  98.2297 283.7281 0001400  89.9714 270.1645 14.57103665151318
